OBJECT_NAME,OBJECT_ID,EPOCH,MEAN_MOTION,ECCENTRICITY,INCLINATION,RA_OF_ASC_NODE,ARG_OF_PERICENTER,MEAN_ANOMALY,EPHEMERIS_TYPE,CLASSIFICATION_TYPE,NORAD_CAT_ID,ELEMENT_SET_NO,REV_AT_EPOCH,BSTAR,MEAN_MOTION_DOT,MEAN_MOTION_DDOT
STARLINK-37491,2026-111U,2026-06-08T11:29:29.360256,15.78105334,.0003485,53.1592,195.2544,26.2434,333.8763,0,U,69166,999,288,.96887E-3,.171391E-2,0
STARLINK-37474,2026-111V,2026-06-08T11:25:48.266976,15.78096692,.0001227,53.1593,195.2368,68.0600,292.0552,0,U,69167,999,288,.84692E-3,.149254E-2,0
STARLINK-37469,2026-111W,2026-06-08T12:00:02.000160,15.64834732,.0001244,53.1599,195.2034,45.6920,48.3162,0,U,69168,999,415,-.29022E-1,-.2513836E-1,0
STARLINK-37515,2026-111X,2026-06-08T12:54:37.785312,15.78147230,.0001292,53.1590,194.9099,106.5236,253.5927,0,U,69169,999,289,.10313E-2,.183033E-2,0
STARLINK-37437,2026-111Y,2026-06-06T16:44:26.116800,15.80891266,.00007328,53.1586,204.0510,63.0627,297.0470,0,U,69170,999,260,.74850576E-3,.149746E-2,0
STARLINK-37392,2026-111Z,2026-06-08T12:00:02.000160,15.78063713,.0000885,53.1589,195.0206,58.0886,125.1149,0,U,69171,999,415,-.35098E-3,-.61195E-3,0
STARLINK-37472,2026-111AA,2026-06-08T12:00:02.000160,15.78052427,.0000929,53.1594,194.9889,97.2091,101.2307,0,U,69172,999,415,-.45769E-3,-.7939E-3,0
STARLINK-37461,2026-111AB,2026-06-08T12:00:02.000160,15.66646392,.0001465,53.1597,195.1501,60.8192,58.7827,0,U,69173,999,415,-.2728E-1,-.2539469E-1,0
STARLINK-37333,2026-111AC,2026-06-08T11:21:07.258752,15.78128327,.0001193,53.1584,195.2142,71.8460,288.2691,0,U,69174,999,288,.15863E-2,.285075E-2,0
STARLINK-37385,2026-111AD,2026-06-08T12:00:02.000160,15.68615219,.0001419,53.1592,195.1102,60.6471,78.6569,0,U,69175,999,415,-.25095E-1,-.2534423E-1,0
STARLINK-37414,2026-111AE,2026-06-08T12:00:02.000160,15.78060829,.0001198,53.1590,195.0298,96.7676,81.8499,0,U,69176,999,415,-.57276E-3,-.98998E-3,0
STRIX-7,2026-112A,2026-06-08T12:32:47.978592,15.01392501,.0024036,44.9065,237.9556,358.0888,1.9888,0,U,69177,999,257,.28838E-3,.3566E-4,0
SHENZHOU-23 (SZ-23),2026-113A,2026-06-08T01:57:54.676512,15.60427341,.00087027,41.4696,17.3987,5.5904,354.5031,0,U,69180,999,29188,.30374166E-3,.25465E-3,0
STARLINK-37380,2026-114A,2026-06-08T12:00:02.000160,15.78030647,.0000973,53.1583,245.8658,82.8302,33.3015,0,U,69182,999,341,.29605E-3,.50984E-3,0
STARLINK-37089,2026-114B,2026-06-08T12:00:02.000160,15.78025337,.0001087,53.1584,245.8547,64.3748,57.0696,0,U,69183,999,341,.38963E-3,.67427E-3,0
STARLINK-37428,2026-114C,2026-06-08T12:00:02.000160,15.78027812,.0001082,53.1584,245.8386,63.6974,65.7413,0,U,69184,999,341,.35826E-3,.61911E-3,0
STARLINK-37237,2026-114D,2026-06-08T12:00:02.000160,15.78036478,.0001032,53.1586,245.8058,76.6394,68.4438,0,U,69185,999,341,.24227E-3,.41566E-3,0
STARLINK-37365,2026-114E,2026-06-08T12:00:02.000160,15.78036234,.0001074,53.1585,245.8094,84.2750,59.0232,0,U,69186,999,341,.27865E-3,.47945E-3,0
STARLINK-37209,2026-114F,2026-06-08T12:00:02.000160,15.78061019,.0001095,53.1586,245.8007,66.8635,80.8184,0,U,69187,999,341,.24178E-4,.3533E-4,0
STARLINK-37359,2026-114G,2026-06-08T12:00:02.000160,15.78043813,.0000965,53.1585,245.7956,84.0503,66.1464,0,U,69188,999,341,.20386E-3,.34854E-3,0
STARLINK-37440,2026-114H,2026-06-08T12:00:02.000160,15.80861622,.0001153,53.1593,245.3707,85.6503,269.4451,0,U,69189,999,341,.18883E-3,.36708E-3,0
STARLINK-37282,2026-114J,2026-06-08T12:00:02.000160,15.78085267,.0000626,53.1593,245.7190,81.8739,105.0262,0,U,69190,999,341,-.569E-3,-.98459E-3,0
STARLINK-37422,2026-114K,2026-06-08T12:00:02.000160,15.80860147,.0001212,53.1590,245.6932,75.9774,123.8230,0,U,69191,999,341,.31E-3,.60881E-3,0
STARLINK-37424,2026-114L,2026-06-08T12:00:02.000160,15.78052023,.0001315,53.1590,245.7215,67.1018,119.1580,0,U,69192,999,341,.21658E-4,.3093E-4,0
STARLINK-36666,2026-114M,2026-06-08T12:00:02.000160,15.80853965,.0001098,53.1587,245.6962,96.8361,101.7037,0,U,69193,999,341,.38085E-3,.75058E-3,0
STARLINK-37355,2026-114N,2026-06-08T12:00:02.000160,15.80855018,.0001191,53.1587,245.6876,68.2094,134.6067,0,U,69194,999,341,.32636E-3,.64139E-3,0
STARLINK-37166,2026-114P,2026-06-08T12:00:02.000160,15.80846657,.0001154,53.1587,245.6691,79.0106,132.4499,0,U,69195,999,341,.20452E-3,.39804E-3,0
STARLINK-36933,2026-114Q,2026-06-08T12:00:02.000160,15.80878937,.0001155,53.1590,245.6785,63.6244,143.4512,0,U,69196,999,341,.1434E-3,.27703E-3,0
STARLINK-37419,2026-114R,2026-06-08T12:00:02.000160,15.80856786,.0001118,53.1588,245.6606,92.5008,123.1285,0,U,69197,999,341,.34975E-3,.6883E-3,0
