STARLINK-37491          
1 69166U 26111U   26159.47881204  .00171391  00000+0  96887-3 0  9998
2 69166  53.1592 195.2544 0003485  26.2434 333.8763 15.78105334  2884
STARLINK-37474          
1 69167U 26111V   26159.47625309  .00149254  00000+0  84692-3 0  9995
2 69167  53.1593 195.2368 0001227  68.0600 292.0552 15.78096692  2889
STARLINK-37469          
1 69168U 26111W   26159.50002315 -.02513836  00000+0 -29022-1 0  9995
2 69168  53.1599 195.2034 0001244  45.6920  48.3162 15.64834732  4152
STARLINK-37515          
1 69169U 26111X   26159.53793733  .00183033  00000+0  10313-2 0  9992
2 69169  53.1590 194.9099 0001292 106.5236 253.5927 15.78147230  2894
STARLINK-37437          
1 69170U 26111Y   26157.69752450  .00149746  00000+0  74851-3 0  9991
2 69170  53.1586 204.0510 0000732  63.0627 297.0470 15.80891266  2604
STARLINK-37392          
1 69171U 26111Z   26159.50002315 -.00061195  00000+0 -35098-3 0  9995
2 69171  53.1589 195.0206 0000885  58.0886 125.1149 15.78063713  4150
STARLINK-37472          
1 69172U 26111AA  26159.50002315 -.00079390  00000+0 -45769-3 0  9998
2 69172  53.1594 194.9889 0000929  97.2091 101.2307 15.78052427  4155
STARLINK-37461          
1 69173U 26111AB  26159.50002315 -.02539469  00000+0 -27280-1 0  9995
2 69173  53.1597 195.1501 0001465  60.8192  58.7827 15.66646392  4157
STARLINK-37333          
1 69174U 26111AC  26159.47300068  .00285075  00000+0  15863-2 0  9990
2 69174  53.1584 195.2142 0001193  71.8460 288.2691 15.78128327  2887
STARLINK-37385          
1 69175U 26111AD  26159.50002315 -.02534423  00000+0 -25095-1 0  9994
2 69175  53.1592 195.1102 0001419  60.6471  78.6569 15.68615219  4158
STARLINK-37414          
1 69176U 26111AE  26159.50002315 -.00098998  00000+0 -57276-3 0  9993
2 69176  53.1590 195.0298 0001198  96.7676  81.8499 15.78060829  4153
STRIX-7                 
1 69177U 26112A   26159.52277753  .00003566  00000+0  28838-3 0  9994
2 69177  44.9065 237.9556 0024036 358.0888   1.9888 15.01392501  2577
SHENZHOU-23 (SZ-23)     
1 69180U 26113A   26159.08188283  .00025465  00000+0  30374-3 0  9999
2 69180  41.4696  17.3987 0008702   5.5904 354.5031 15.60427341291883
STARLINK-37380          
1 69182U 26114A   26159.50002315  .00050984  00000+0  29605-3 0  9999
2 69182  53.1583 245.8658 0000973  82.8302  33.3015 15.78030647  3417
STARLINK-37089          
1 69183U 26114B   26159.50002315  .00067427  00000+0  38963-3 0  9997
2 69183  53.1584 245.8547 0001087  64.3748  57.0696 15.78025337  3410
STARLINK-37428          
1 69184U 26114C   26159.50002315  .00061911  00000+0  35826-3 0  9995
2 69184  53.1584 245.8386 0001082  63.6974  65.7413 15.78027812  3413
STARLINK-37237          
1 69185U 26114D   26159.50002315  .00041566  00000+0  24227-3 0  9993
2 69185  53.1586 245.8058 0001032  76.6394  68.4438 15.78036478  3412
STARLINK-37365          
1 69186U 26114E   26159.50002315  .00047945  00000+0  27865-3 0  9992
2 69186  53.1585 245.8094 0001074  84.2750  59.0232 15.78036234  3417
STARLINK-37209          
1 69187U 26114F   26159.50002315  .00003533  00000+0  24178-4 0  9993
2 69187  53.1586 245.8007 0001095  66.8635  80.8184 15.78061019  3411
STARLINK-37359          
1 69188U 26114G   26159.50002315  .00034854  00000+0  20386-3 0  9990
2 69188  53.1585 245.7956 0000965  84.0503  66.1464 15.78043813  3414
STARLINK-37440          
1 69189U 26114H   26159.50002315  .00036708  00000+0  18883-3 0  9990
2 69189  53.1593 245.3707 0001153  85.6503 269.4451 15.80861622  3414
STARLINK-37282          
1 69190U 26114J   26159.50002315 -.00098459  00000+0 -56900-3 0  9997
2 69190  53.1593 245.7190 0000626  81.8739 105.0262 15.78085267  3414
STARLINK-37422          
1 69191U 26114K   26159.50002315  .00060881  00000+0  31000-3 0  9998
2 69191  53.1590 245.6932 0001212  75.9774 123.8230 15.80860147  3414
STARLINK-37424          
1 69192U 26114L   26159.50002315  .00003093  00000+0  21658-4 0  9990
2 69192  53.1590 245.7215 0001315  67.1018 119.1580 15.78052023  3417
STARLINK-36666          
1 69193U 26114M   26159.50002315  .00075058  00000+0  38085-3 0  9992
2 69193  53.1587 245.6962 0001098  96.8361 101.7037 15.80853965  3411
STARLINK-37355          
1 69194U 26114N   26159.50002315  .00064139  00000+0  32636-3 0  9997
2 69194  53.1587 245.6876 0001191  68.2094 134.6067 15.80855018  3415
STARLINK-37166          
1 69195U 26114P   26159.50002315  .00039804  00000+0  20452-3 0  9992
2 69195  53.1587 245.6691 0001154  79.0106 132.4499 15.80846657  3418
STARLINK-36933          
1 69196U 26114Q   26159.50002315  .00027703  00000+0  14340-3 0  9997
2 69196  53.1590 245.6785 0001155  63.6244 143.4512 15.80878937  3414
STARLINK-37419          
1 69197U 26114R   26159.50002315  .00068830  00000+0  34975-3 0  9990
2 69197  53.1588 245.6606 0001118  92.5008 123.1285 15.80856786  3412
